start=new Date('2022-08-21T00:00:00.000Z').valueOf();
sats=[{"CLASSIFICATION_TYPE":"U","COUNTRY_CODE":"US","RA_OF_ASC_NODE":"53.2031","MEAN_ANOMALY":"44.0796","CENTER_NAME":"EARTH","REV_AT_EPOCH":"130","MEAN_MOTION_DDOT":"0.0000000000000","EPHEMERIS_TYPE":"0","REF_FRAME":"TEME","NORAD_CAT_ID":"53085","OBJECT_TYPE":"PAYLOAD","RCS_SIZE":"LARGE","SEMIMAJOR_AXIS":"6891.140","OBJECT_ID":"2022-077AU","MEAN_MOTION":"15.17630978","INCLINATION":"97.6554","BSTAR":"-0.06618300000000","TLE_LINE2":"2 53085  97.6554  53.2031 0002078  58.4093  44.0796 15.17630978  1300","PERIAPSIS":"511.573","ECCENTRICITY":"0.00020780","SITE":"AFWTR","APOAPSIS":"514.437","ELEMENT_SET_NO":"999","TLE_LINE1":"1 53085U 22077AU  22232.91667824 -.01220515  00000-0 -66183-1 0  9996","LAUNCH_DATE":"2022-07-11","EPOCH":"2022-08-20T22:00:00.999936","PERIOD":"94.885","ARG_OF_PERICENTER":"58.4093","MEAN_MOTION_DOT":"-0.01220515","MEAN_ELEMENT_THEORY":"SGP4","FILE":"3541760","DECAY_DATE":null,"OBJECT_NAME":"STARLINK-4324","TIME_SYSTEM":"UTC","GP_ID":"210623325"},{"INCLINATION":"97.6554","TLE_LINE2":"2 53086  97.6554  53.2022 0001850  76.9158  16.0648 15.17445737  1307","BSTAR":"-0.06652700000000","PERIAPSIS":"512.291","ECCENTRICITY":"0.00018500","APOAPSIS":"514.840","SITE":"AFWTR","LAUNCH_DATE":"2022-07-11","PERIOD":"94.896","EPOCH":"2022-08-20T22:00:00.999936","ARG_OF_PERICENTER":"76.9158","ELEMENT_SET_NO":"999","TLE_LINE1":"1 53086U 22077AV  22232.91667824 -.01220300  00000-0 -66527-1 0  9991","MEAN_MOTION_DOT":"-0.01220300","MEAN_ELEMENT_THEORY":"SGP4","DECAY_DATE":null,"FILE":"3541760","TIME_SYSTEM":"UTC","GP_ID":"210623186","OBJECT_NAME":"STARLINK-4318","CLASSIFICATION_TYPE":"U","COUNTRY_CODE":"US","RA_OF_ASC_NODE":"53.2022","REV_AT_EPOCH":"130","MEAN_ANOMALY":"16.0648","CENTER_NAME":"EARTH","MEAN_MOTION_DDOT":"0.0000000000000","EPHEMERIS_TYPE":"0","REF_FRAME":"TEME","RCS_SIZE":"LARGE","NORAD_CAT_ID":"53086","OBJECT_TYPE":"PAYLOAD","OBJECT_ID":"2022-077AV","SEMIMAJOR_AXIS":"6891.700","MEAN_MOTION":"15.17445737"},{"COUNTRY_CODE":"US","RA_OF_ASC_NODE":"53.2038","CLASSIFICATION_TYPE":"U","REV_AT_EPOCH":"130","CENTER_NAME":"EARTH","MEAN_ANOMALY":"58.6905","MEAN_MOTION_DDOT":"0.0000000000000","REF_FRAME":"TEME","EPHEMERIS_TYPE":"0","RCS_SIZE":"LARGE","OBJECT_TYPE":"PAYLOAD","NORAD_CAT_ID":"53087","OBJECT_ID":"2022-077AW","SEMIMAJOR_AXIS":"6890.218","MEAN_MOTION":"15.17935661","INCLINATION":"97.6554","BSTAR":"-0.06558800000000","TLE_LINE2":"2 53087  97.6554  53.2038 0002095  59.6226  58.6905 15.17935661  1309","PERIAPSIS":"510.639","ECCENTRICITY":"0.00020950","APOAPSIS":"513.526","SITE":"AFWTR","EPOCH":"2022-08-20T22:00:00.999936","PERIOD":"94.866","ARG_OF_PERICENTER":"59.6226","LAUNCH_DATE":"2022-07-11","TLE_LINE1":"1 53087U 22077AW  22232.91667824 -.01220236  00000-0 -65588-1 0  9996","ELEMENT_SET_NO":"999","FILE":"3541760","DECAY_DATE":null,"MEAN_ELEMENT_THEORY":"SGP4","MEAN_MOTION_DOT":"-0.01220236","GP_ID":"210622518","TIME_SYSTEM":"UTC","OBJECT_NAME":"STARLINK-4329"},{"RA_OF_ASC_NODE":"53.2063","COUNTRY_CODE":"US","CLASSIFICATION_TYPE":"U","MEAN_MOTION_DDOT":"0.0000000000000","REV_AT_EPOCH":"130","CENTER_NAME":"EARTH","MEAN_ANOMALY":"56.0863","RCS_SIZE":"LARGE","OBJECT_TYPE":"PAYLOAD","NORAD_CAT_ID":"53088","REF_FRAME":"TEME","EPHEMERIS_TYPE":"0","MEAN_MOTION":"15.17935398","OBJECT_ID":"2022-077AX","SEMIMAJOR_AXIS":"6890.218","BSTAR":"-0.06558900000000","TLE_LINE2":"2 53088  97.6554  53.2063 0002065  61.4356  56.0863 15.17935398  1302","INCLINATION":"97.6554","ECCENTRICITY":"0.00020650","PERIAPSIS":"510.660","PERIOD":"94.866","ARG_OF_PERICENTER":"61.4356","EPOCH":"2022-08-20T22:00:00.999936","LAUNCH_DATE":"2022-07-11","TLE_LINE1":"1 53088U 22077AX  22232.91667824 -.01220238  00000-0 -65589-1 0  9990","ELEMENT_SET_NO":"999","APOAPSIS":"513.506","SITE":"AFWTR","GP_ID":"210622660","TIME_SYSTEM":"UTC","OBJECT_NAME":"STARLINK-4333","DECAY_DATE":null,"FILE":"3541760","MEAN_MOTION_DOT":"-0.01220238","MEAN_ELEMENT_THEORY":"SGP4"},{"INCLINATION":"53.2172","BSTAR":"-0.02188100000000","TLE_LINE2":"2 53132  53.2172 238.0549 0001466  39.2881 329.1724 15.49574489  1303","PERIAPSIS":"416.976","ECCENTRICITY":"0.00014660","APOAPSIS":"418.968","SITE":"AFETR","EPOCH":"2022-08-20T22:00:00.999936","PERIOD":"92.929","ARG_OF_PERICENTER":"39.2881","LAUNCH_DATE":"2022-07-17","TLE_LINE1":"1 53132U 22083A   22232.91667824 -.01109938  00000-0 -21881-1 0  9997","ELEMENT_SET_NO":"999","DECAY_DATE":null,"FILE":"3541760","MEAN_ELEMENT_THEORY":"SGP4","MEAN_MOTION_DOT":"-0.01109938","GP_ID":"210622937","TIME_SYSTEM":"UTC","OBJECT_NAME":"STARLINK-4063","COUNTRY_CODE":"US","RA_OF_ASC_NODE":"238.0549","CLASSIFICATION_TYPE":"U","REV_AT_EPOCH":"130","CENTER_NAME":"EARTH","MEAN_ANOMALY":"329.1724","MEAN_MOTION_DDOT":"0.0000000000000","REF_FRAME":"TEME","EPHEMERIS_TYPE":"0","RCS_SIZE":"LARGE","OBJECT_TYPE":"PAYLOAD","NORAD_CAT_ID":"53132","OBJECT_ID":"2022-083A","SEMIMAJOR_AXIS":"6796.107","MEAN_MOTION":"15.49574489"},{"OBJECT_ID":"2022-083B","SEMIMAJOR_AXIS":"6800.651","MEAN_MOTION":"15.48021807","REF_FRAME":"TEME","EPHEMERIS_TYPE":"0","RCS_SIZE":"LARGE","OBJECT_TYPE":"PAYLOAD","NORAD_CAT_ID":"53133","REV_AT_EPOCH":"130","CENTER_NAME":"EARTH","MEAN_ANOMALY":"309.5053","MEAN_MOTION_DDOT":"0.0000000000000","RA_OF_ASC_NODE":"237.9869","COUNTRY_CODE":"US","CLASSIFICATION_TYPE":"U","FILE":"3541760","DECAY_DATE":null,"MEAN_ELEMENT_THEORY":"SGP4","MEAN_MOTION_DOT":"-0.01111259","GP_ID":"210623078","TIME_SYSTEM":"UTC","OBJECT_NAME":"STARLINK-4154","APOAPSIS":"423.353","SITE":"AFETR","PERIOD":"93.022","ARG_OF_PERICENTER":"51.8268","EPOCH":"2022-08-20T22:00:00.999936","LAUNCH_DATE":"2022-07-17","TLE_LINE1":"1 53133U 22083B   22232.91667824 -.01111259  00000-0 -23148-1 0  9995","ELEMENT_SET_NO":"999","PERIAPSIS":"421.678","ECCENTRICITY":"0.00012320","INCLINATION":"53.2172","TLE_LINE2":"2 53133  53.2172 237.9869 0001232  51.8268 309.5053 15.48021807  1304","BSTAR":"-0.02314800000000"},{"RA_OF_ASC_NODE":"238.0283","COUNTRY_CODE":"US","CLASSIFICATION_TYPE":"U","MEAN_MOTION_DDOT":"0.0000000000000","REV_AT_EPOCH":"130","CENTER_NAME":"EARTH","MEAN_ANOMALY":"321.7695","RCS_SIZE":"LARGE","OBJECT_TYPE":"PAYLOAD","NORAD_CAT_ID":"53134","REF_FRAME":"TEME","EPHEMERIS_TYPE":"0","MEAN_MOTION":"15.48958310","OBJECT_ID":"2022-083C","SEMIMAJOR_AXIS":"6797.909","BSTAR":"-0.02240900000000","TLE_LINE2":"2 53134  53.2172 238.0283 0001341  44.0493 321.7695 15.48958310  1308","INCLINATION":"53.2172","ECCENTRICITY":"0.00013410","PERIAPSIS":"418.863","EPOCH":"2022-08-20T22:00:00.999936","PERIOD":"92.966","ARG_OF_PERICENTER":"44.0493","LAUNCH_DATE":"2022-07-17","TLE_LINE1":"1 53134U 22083C   22232.91667824 -.01111891  00000-0 -22409-1 0  9997","ELEMENT_SET_NO":"999","APOAPSIS":"420.686","SITE":"AFETR","GP_ID":"210623330","TIME_SYSTEM":"UTC","OBJECT_NAME":"STARLINK-4150","DECAY_DATE":null,"FILE":"3541760","MEAN_ELEMENT_THEORY":"SGP4","MEAN_MOTION_DOT":"-0.01111891"},{"MEAN_MOTION_DDOT":"0.0000000000000","REV_AT_EPOCH":"130","MEAN_ANOMALY":"333.1344","CENTER_NAME":"EARTH","CLASSIFICATION_TYPE":"U","COUNTRY_CODE":"US","RA_OF_ASC_NODE":"238.0009","MEAN_MOTION":"15.48334022","OBJECT_ID":"2022-083D","SEMIMAJOR_AXIS":"6799.736","RCS_SIZE":"LARGE","NORAD_CAT_ID":"53135","OBJECT_TYPE":"PAYLOAD","EPHEMERIS_TYPE":"0","REF_FRAME":"TEME","ECCENTRICITY":"0.00016970","PERIAPSIS":"420.447","BSTAR":"-0.02290200000000","TLE_LINE2":"2 53135  53.2172 238.0009 0001697  29.8389 333.1344 15.48334022  1300","INCLINATION":"53.2172","GP_ID":"210623191","TIME_SYSTEM":"UTC","OBJECT_NAME":"STARLINK-4023","MEAN_ELEMENT_THEORY":"SGP4","MEAN_MOTION_DOT":"-0.01111704","FILE":"3541760","DECAY_DATE":null,"LAUNCH_DATE":"2022-07-17","ARG_OF_PERICENTER":"29.8389","PERIOD":"93.003","EPOCH":"2022-08-20T22:00:00.999936","ELEMENT_SET_NO":"999","TLE_LINE1":"1 53135U 22083D   22232.91667824 -.01111704  00000-0 -22902-1 0  9999","APOAPSIS":"422.755","SITE":"AFETR"},{"PERIOD":"92.984","EPOCH":"2022-08-20T22:00:00.999936","ARG_OF_PERICENTER":"32.9738","LAUNCH_DATE":"2022-07-17","TLE_LINE1":"1 53136U 22083E   22232.91667824 -.01111845  00000-0 -22655-1 0  9991","ELEMENT_SET_NO":"999","APOAPSIS":"421.773","SITE":"AFETR","GP_ID":"210622523","TIME_SYSTEM":"UTC","OBJECT_NAME":"STARLINK-4152","FILE":"3541760","DECAY_DATE":null,"MEAN_MOTION_DOT":"-0.01111845","MEAN_ELEMENT_THEORY":"SGP4","TLE_LINE2":"2 53136  53.2172 238.0145 0001596  32.9738 331.4950 15.48646176  1303","BSTAR":"-0.02265500000000","INCLINATION":"53.2172","ECCENTRICITY":"0.00015960","PERIAPSIS":"419.602","RCS_SIZE":"LARGE","OBJECT_TYPE":"PAYLOAD","NORAD_CAT_ID":"53136","REF_FRAME":"TEME","EPHEMERIS_TYPE":"0","MEAN_MOTION":"15.48646176","OBJECT_ID":"2022-083E","SEMIMAJOR_AXIS":"6798.823","RA_OF_ASC_NODE":"238.0145","COUNTRY_CODE":"US","CLASSIFICATION_TYPE":"U","MEAN_MOTION_DDOT":"0.0000000000000","REV_AT_EPOCH":"130","CENTER_NAME":"EARTH","MEAN_ANOMALY":"331.4950"},{"PERIAPSIS":"418.028","ECCENTRICITY":"0.00012260","INCLINATION":"53.2172","BSTAR":"-0.02216500000000","TLE_LINE2":"2 53137  53.2172 238.0426 0001226  51.7353 315.2880 15.49270420  1306","FILE":"3541760","DECAY_DATE":null,"MEAN_MOTION_DOT":"-0.01111972","MEAN_ELEMENT_THEORY":"SGP4","GP_ID":"210622665","TIME_SYSTEM":"UTC","OBJECT_NAME":"STARLINK-4145","APOAPSIS":"419.694","SITE":"AFETR","EPOCH":"2022-08-20T22:00:00.999936","PERIOD":"92.947","ARG_OF_PERICENTER":"51.7353","LAUNCH_DATE":"2022-07-17","TLE_LINE1":"1 53137U 22083F   22232.91667824 -.01111972  00000-0 -22165-1 0  9999","ELEMENT_SET_NO":"999","REV_AT_EPOCH":"130","CENTER_NAME":"EARTH","MEAN_ANOMALY":"315.2880","MEAN_MOTION_DDOT":"0.0000000000000","RA_OF_ASC_NODE":"238.0426","COUNTRY_CODE":"US","CLASSIFICATION_TYPE":"U","OBJECT_ID":"2022-083F","SEMIMAJOR_AXIS":"6796.996","MEAN_MOTION":"15.49270420","REF_FRAME":"TEME","EPHEMERIS_TYPE":"0","RCS_SIZE":"LARGE","OBJECT_TYPE":"PAYLOAD","NORAD_CAT_ID":"53137"}];
